SAVED_AT,EPOCH,OBJECT_NAME,OBJECT_ID,MEAN_MOTION,ECCENTRICITY,INCLINATION,RA_OF_ASC_NODE,ARG_OF_PERICENTER,MEAN_ANOMALY,EPHEMERIS_TYPE,CLASSIFICATION_TYPE,NORAD_CAT_ID,ELEMENT_SET_NO,REV_AT_EPOCH,BSTAR,MEAN_MOTION_DOT,MEAN_MOTION_DDOT
2026-07-15T02:54:30.068381,2026-07-14T12:19:14.038752,SWIFT,2004-047A,15.7111394,0.0002053,20.553,333.6864,17.5678,342.4839,0.0,U,28485.0,999.0,19116.0,0.00031959454,0.0004333,0.0
